NORAD_CAT_ID,OBJECT_NAME,OBJECT_TYPE,EPOCH,MEAN_MOTION,ECCENTRICITY,INCLINATION,RA_OF_ASC_NODE,ARG_OF_PERICENTER,MEAN_ANOMALY,BSTAR,MEAN_MOTION_DOT,MEAN_MOTION_DDOT,TLE_LINE0,TLE_LINE1,TLE_LINE2,SEMIMAJOR_AXIS,PERIOD,APOGEE,PERIGEE,DECAYED
55653.0,STARLINK-5067,PAYLOAD,2023-06-19 14:00:01,15.13323099,0.0003401,69.998,171.0136,273.0348,33.1589,-0.058954,-0.00970232,0.0,0 STARLINK-5067,1 55653U 23021AB  23170.58334491 -.00970232  00000-0 -58954-1 0  9999,2 55653  69.9980 171.0136 0003401 273.0348  33.1589 15.13323099  1300,6904.211,95.155,528.424,523.728,0.0
55653.0,STARLINK-5067,PAYLOAD,2023-06-19 22:00:00,15.12638381,0.0003439,69.9982,170.1539,266.7569,54.4776,-0.055506,-0.00901354,0.0,0 STARLINK-5067,1 55653U 23021AB  23170.91667824 -.00901354  00000-0 -55506-1 0  9994,2 55653  69.9982 170.1539 0003439 266.7569  54.4776 15.12638381  1300,6906.295,95.198,530.535,525.784,0.0
55653.0,STARLINK-5067,PAYLOAD,2023-06-20 06:00:02,15.11981126,0.0003434,69.9985,169.2949,270.926,64.6337,-0.057414,-0.00914342,0.0,0 STARLINK-5067,1 55653U 23021AB  23171.25002315 -.00914342  00000-0 -57414-1 0  9991,2 55653  69.9985 169.2949 0003434 270.9260  64.6337 15.11981126 19680,6908.296,95.239,532.533,527.789,0.0
55653.0,STARLINK-5067,PAYLOAD,2023-06-20 14:00:01,15.11365434,0.0003403,69.9983,168.4368,272.8037,76.1468,-0.062244,-0.00969791,0.0,0 STARLINK-5067,1 55653U 23021AB  23171.58334491 -.00969791  00000-0 -62244-1 0  9995,2 55653  69.9983 168.4368 0003403 272.8037  76.1468 15.11365434  1304,6910.172,95.278,534.388,529.685,0.0
55653.0,STARLINK-5067,PAYLOAD,2023-06-20 22:00:00,15.10685474,0.0003438,69.9985,167.5797,266.8255,94.8169,-0.059019,-0.00907172,0.0,0 STARLINK-5067,1 55653U 23021AB  23171.91667824 -.00907172  00000-0 -59019-1 0  9992,2 55653  69.9985 167.5797 0003438 266.8255  94.8169 15.10685474  1308,6912.245,95.321,536.487,531.734,0.0
55653.0,STARLINK-5067,PAYLOAD,2023-06-21 06:00:00,15.10022698,0.0003406,69.9988,166.7233,270.9311,102.6284,-0.060387,-0.00911021,0.0,0 STARLINK-5067,1 55653U 23021AB  23172.25001157 -.00911021  00000-0 -60387-1 0  9999,2 55653  69.9988 166.7233 0003406 270.9311 102.6284 15.10022698 19837,6914.268,95.363,538.488,533.778,0.0
55653.0,STARLINK-5067,PAYLOAD,2023-06-21 14:00:01,15.09406703,0.0003374,69.9986,165.8678,272.5897,112.0773,-0.06555,-0.00967548,0.0,0 STARLINK-5067,1 55653U 23021AB  23172.58334491 -.00967548  00000-0 -65550-1 0  9997,2 55653  69.9986 165.8678 0003374 272.5897 112.0773 15.09406703  1301,6916.149,95.402,540.347,535.68,0.0
55653.0,STARLINK-5067,PAYLOAD,2023-06-21 22:00:01,15.08735142,0.0003381,69.9989,165.0132,266.6942,128.3772,-0.062989,-0.00916719,0.0,0 STARLINK-5067,1 55653U 23021AB  23172.91668981 -.00916719  00000-0 -62989-1 0  9995,2 55653  69.9989 165.0132 0003381 266.6942 128.3772 15.08735142  1304,6918.201,95.444,542.405,537.727,0.0
55653.0,STARLINK-5067,PAYLOAD,2023-06-22 06:00:00,15.08064136,0.0003346,69.9992,164.1595,270.7837,133.7979,-0.063413,-0.0090684,0.0,0 STARLINK-5067,1 55653U 23021AB  23173.25001157 -.00906840  00000-0 -63413-1 0  9996,2 55653  69.9992 164.1595 0003346 270.7837 133.7979 15.08064136 19981,6920.253,95.487,544.433,539.802,0.0
55653.0,STARLINK-5067,PAYLOAD,2023-06-23 06:00:00,15.06102629,0.0003314,69.9993,161.6034,274.4131,154.1512,-0.066254,-0.00898841,0.0,0 STARLINK-5067,1 55653U 23021AB  23174.25001157 -.00898841  00000-0 -66254-1 0  9994,2 55653  69.9993 161.6034 0003314 274.4131 154.1512 15.06102629 20132,6926.26,95.611,550.42,545.83,0.0
55653.0,STARLINK-5067,PAYLOAD,2023-06-23 22:00:01,15.04829666,0.0003264,69.9995,159.9037,270.9425,169.742,-0.071138,-0.00930003,0.0,0 STARLINK-5067,1 55653U 23021AB  23174.91668981 -.00930003  00000-0 -71138-1 0  9995,2 55653  69.9995 159.9037 0003264 270.9425 169.7420 15.04829666 20234,6930.166,95.692,554.293,549.769,0.0
55653.0,STARLINK-5067,PAYLOAD,2023-06-25 06:00:00,15.02185468,0.0003161,69.9994,156.5147,275.9805,179.4241,-0.072622,-0.00887876,0.0,0 STARLINK-5067,1 55653U 23021AB  23176.25001157 -.00887876  00000-0 -72622-1 0  9998,2 55653  69.9994 156.5147 0003161 275.9805 179.4241 15.02185468 20435,6938.296,95.86,562.354,557.967,0.0
55653.0,STARLINK-5067,PAYLOAD,2023-06-25 22:00:01,15.00921032,0.0003114,69.9995,154.8254,271.3724,186.764,-0.079714,-0.00949185,0.0,0 STARLINK-5067,1 55653U 23021AB  23176.91668981 -.00949185  00000-0 -79714-1 0  9996,2 55653  69.9995 154.8254 0003114 271.3724 186.7640 15.00921032 20532,6942.192,95.941,566.219,561.895,0.0
55653.0,STARLINK-5067,PAYLOAD,2023-06-26 14:00:01,14.99432078,0.0003156,69.9992,153.1394,273.6643,184.0027,-0.018653,-0.0022203,0.0,0 STARLINK-5067,1 55653U 23021AB  23177.58334491 -.00222030  00000-0 -18653-1 0  9994,2 55653  69.9992 153.1394 0003156 273.6643 184.0027 14.99432078 20632,6946.787,96.036,570.844,566.459,0.0
55653.0,STARLINK-5067,PAYLOAD,2023-06-26 22:00:00,14.99302835,0.0003209,69.9997,152.2977,268.4871,187.8827,0.00058679,7.094e-05,0.0,0 STARLINK-5067,1 55653U 23021AB  23177.91667824  .00007094  00000-0  58679-3 0  9993,2 55653  69.9997 152.2977 0003209 268.4871 187.8827 14.99302835 20689,6947.186,96.045,571.28,566.822,0.0
55653.0,STARLINK-5067,PAYLOAD,2023-06-27 14:00:01,14.99476929,0.0003105,69.9992,150.6139,275.0926,178.5465,-0.049576,-0.00574838,0.0,0 STARLINK-5067,1 55653U 23021AB  23178.58334491 -.00574838  00000-0 -49576-1 0  9999,2 55653  69.9992 150.6139 0003105 275.0926 178.5465 14.99476929 20788,6946.648,96.033,570.67,566.356,0.0
55653.0,STARLINK-5067,PAYLOAD,2023-06-27 22:00:00,14.99066349,0.0003075,69.9996,149.7723,268.8746,183.3917,-0.074681,-0.00844272,0.0,0 STARLINK-5067,1 55653U 23021AB  23178.91667824 -.00844272  00000-0 -74681-1 0  9992,2 55653  69.9996 149.7723 0003075 268.8746 183.3917 14.99066349 20839,6947.917,96.06,571.918,567.645,0.0
55653.0,STARLINK-5067,PAYLOAD,2023-06-28 06:00:00,14.98336351,0.0003095,69.9996,148.9313,273.9482,176.3302,-0.001323,-0.00015846,0.0,0 STARLINK-5067,1 55653U 23021AB  23179.25001157 -.00015846  00000-0 -13230-2 0  9992,2 55653  69.9996 148.9313 0003095 273.9482 176.3302 14.98336351 20888,6950.173,96.107,574.189,569.887,0.0
55653.0,STARLINK-5067,PAYLOAD,2023-06-28 14:00:01,14.98341765,0.0003058,69.9994,148.0907,272.1178,175.6421,-0.0040892,-0.00048563,0.0,0 STARLINK-5067,1 55653U 23021AB  23179.58334491 -.00048563  00000-0 -40892-2 0  9994,2 55653  69.9994 148.0907 0003058 272.1178 175.6421 14.98341765 20933,6950.157,96.106,574.147,569.896,0.0
55653.0,STARLINK-5067,PAYLOAD,2023-06-29 22:00:00,14.98338846,0.0003168,69.9999,144.7288,266.3713,171.3086,0.0010432,0.00012379,0.0,0 STARLINK-5067,1 55653U 23021AB  23180.91667824  .00012379  00000-0  10432-2 0  9993,2 55653  69.9999 144.7288 0003168 266.3713 171.3086 14.98338846 21134,6950.166,96.106,574.232,569.829,0.0
55653.0,STARLINK-5067,PAYLOAD,2023-07-01 07:18:07,14.98327375,0.0003063,69.9992,141.2314,270.7574,89.3234,3.0335e-05,2.69e-06,0.0,0 STARLINK-5067,1 55653U 23021AB  23182.30424873  .00000269  00000-0  30335-4 0  9994,2 55653  69.9992 141.2314 0003063 270.7574  89.3234 14.98327375 21348,6950.201,96.107,574.195,569.937,0.0
55653.0,STARLINK-5067,PAYLOAD,2023-07-02 00:55:35,14.98333792,0.0003051,69.9993,139.3798,270.9805,89.1004,4.3316e-05,4.24e-06,0.0,0 STARLINK-5067,1 55653U 23021AB  23183.03860416  .00000424  00000-0  43316-4 0  9998,2 55653  69.9993 139.3798 0003051 270.9805  89.1004 14.98333792 21454,6950.181,96.107,574.167,569.926,0.0
55653.0,STARLINK-5067,PAYLOAD,2023-07-03 02:33:44,14.98329865,0.0003014,69.9994,136.6866,271.5784,88.503,6.9823e-05,7.4e-06,0.0,0 STARLINK-5067,1 55653U 23021AB  23184.10676514  .00000740  00000-0  69823-4 0  9993,2 55653  69.9994 136.6866 0003014 271.5784  88.5030 14.98329865 21619,6950.193,96.107,574.153,569.964,0.0
55653.0,STARLINK-5067,PAYLOAD,2023-07-04 02:35:45,14.98332505,0.0002949,69.9996,134.1622,268.9121,91.17,4.4318e-07,-8.8e-07,0.0,0 STARLINK-5067,1 55653U 23021AB  23185.10816401 -.00000088  00000-0  44318-6 0  9995,2 55653  69.9996 134.1622 0002949 268.9121  91.1700 14.98332505 21760,6950.185,96.107,574.1,570.001,0.0
55653.0,STARLINK-5067,PAYLOAD,2023-07-05 05:50:02,14.98331027,0.0002877,69.9996,131.3004,268.8874,91.1956,2.1714e-05,1.66e-06,0.0,0 STARLINK-5067,1 55653U 23021AB  23186.24308388  .00000166  00000-0  21714-4 0  9990,2 55653  69.9996 131.3004 0002877 268.8874  91.1956 14.98331027 21937,6950.19,96.107,574.054,570.055,0.0
55653.0,STARLINK-5067,PAYLOAD,2023-07-06 05:52:03,14.98331924,0.0002951,69.9995,128.775,269.0643,91.0178,5.0502e-05,5.1e-06,0.0,0 STARLINK-5067,1 55653U 23021AB  23187.24448266  .00000510  00000-0  50502-4 0  9991,2 55653  69.9995 128.7750 0002951 269.0643  91.0178 14.98331924 22082,6950.187,96.107,574.103,570.001,0.0
55653.0,STARLINK-5067,PAYLOAD,2023-07-07 05:54:03,14.98335511,0.0002983,69.9996,126.2506,270.0596,90.0221,9.5792e-05,1.05e-05,0.0,0 STARLINK-5067,1 55653U 23021AB  23188.24587860  .00001050  00000-0  95792-4 0  9996,2 55653  69.9996 126.2506 0002983 270.0596  90.0221 14.98335511 22230,6950.176,96.107,574.114,569.968,0.0
55653.0,STARLINK-5067,PAYLOAD,2023-07-08 07:32:12,14.98335069,0.0002913,69.9996,123.5576,266.0884,93.9942,0.00010263,1.132e-05,0.0,0 STARLINK-5067,1 55653U 23021AB  23189.31403738  .00001132  00000-0  10263-3 0  9996,2 55653  69.9996 123.5576 0002913 266.0884  93.9942 14.98335069 22392,6950.177,96.107,574.067,570.018,0.0
55653.0,STARLINK-5067,PAYLOAD,2023-07-08 18:45:10,14.98328068,0.0002877,69.9997,122.3791,268.4891,91.5939,-5.027e-05,-6.93e-06,0.0,0 STARLINK-5067,1 55653U 23021AB  23189.78136575 -.00000693  00000-0 -50270-4 0  9995,2 55653  69.9997 122.3791 0002877 268.4891  91.5939 14.98328068 22461,6950.199,96.107,574.063,570.064,0.0
55653.0,STARLINK-5067,PAYLOAD,2023-07-10 02:47:50,14.98333019,0.0002893,69.9999,119.013,267.8448,92.2379,5.5153e-05,5.65e-06,0.0,0 STARLINK-5067,1 55653U 23021AB  23191.11656045  .00000565  00000-0  55153-4 0  9995,2 55653  69.9999 119.0130 0002893 267.8448  92.2379 14.98333019 22662,6950.184,96.107,574.059,570.038,0.0
